start=new Date('2023-04-29T00:00:00.000Z').valueOf();
sats=[{"APOAPSIS":"540.943","DECAY_DATE":null,"TIME_SYSTEM":"UTC","BSTAR":"-0.00019036000000","GP_ID":"230895062","MEAN_ANOMALY":"268.4434","CLASSIFICATION_TYPE":"U","TLE_LINE2":"2 49743  53.2161 164.2058 0001778  91.6762 268.4434 15.08850560 78753","PERIAPSIS":"538.483","REF_FRAME":"TEME","INCLINATION":"53.2161","SEMIMAJOR_AXIS":"6917.848","MEAN_MOTION":"15.08850560","SITE":"AFETR","TLE_LINE1":"1 49743U 21115V   23118.82166757 -.00003317  00000-0 -19036-3 0  9992","ARG_OF_PERICENTER":"91.6762","OBJECT_ID":"2021-115V","OBJECT_TYPE":"PAYLOAD","EPOCH":"2023-04-28T19:43:12.078048","NORAD_CAT_ID":"49743","MEAN_ELEMENT_THEORY":"SGP4","RCS_SIZE":"LARGE","EPHEMERIS_TYPE":"0","ELEMENT_SET_NO":"999","REV_AT_EPOCH":"7875","PERIOD":"95.437","FILE":"3895983","MEAN_MOTION_DOT":"-0.00003317","RA_OF_ASC_NODE":"164.2058","CENTER_NAME":"EARTH","LAUNCH_DATE":"2021-12-02","OBJECT_NAME":"STARLINK-3239","COUNTRY_CODE":"US","ECCENTRICITY":"0.00017780","MEAN_MOTION_DDOT":"0.0000000000000"},{"SITE":"AFETR","TLE_LINE1":"1 49744U 21115W   23118.82998002  .00002480  00000-0  17369-3 0  9994","ARG_OF_PERICENTER":"89.2436","OBJECT_ID":"2021-115W","CLASSIFICATION_TYPE":"U","TLE_LINE2":"2 49744  53.2158 164.0625 0001357  89.2436 270.8711 15.08868453 78757","PERIAPSIS":"538.720","REF_FRAME":"TEME","INCLINATION":"53.2158","SEMIMAJOR_AXIS":"6917.793","MEAN_MOTION":"15.08868453","GP_ID":"230894551","MEAN_ANOMALY":"270.8711","DECAY_DATE":null,"APOAPSIS":"540.597","TIME_SYSTEM":"UTC","BSTAR":"0.00017369000000","COUNTRY_CODE":"US","ECCENTRICITY":"0.00013570","MEAN_MOTION_DDOT":"0.0000000000000","MEAN_MOTION_DOT":"0.00002480","FILE":"3896004","RA_OF_ASC_NODE":"164.0625","CENTER_NAME":"EARTH","LAUNCH_DATE":"2021-12-02","OBJECT_NAME":"STARLINK-3231","EPHEMERIS_TYPE":"0","ELEMENT_SET_NO":"999","REV_AT_EPOCH":"7875","PERIOD":"95.436","OBJECT_TYPE":"PAYLOAD","EPOCH":"2023-04-28T19:55:10.273728","NORAD_CAT_ID":"49744","MEAN_ELEMENT_THEORY":"SGP4","RCS_SIZE":"LARGE"},{"MEAN_MOTION_DDOT":"0.0000000000000","ECCENTRICITY":"0.00016040","COUNTRY_CODE":"US","LAUNCH_DATE":"2021-12-02","OBJECT_NAME":"STARLINK-3241","RA_OF_ASC_NODE":"164.1528","CENTER_NAME":"EARTH","FILE":"3895984","MEAN_MOTION_DOT":"-0.00000394","PERIOD":"95.436","ELEMENT_SET_NO":"999","REV_AT_EPOCH":"7875","EPHEMERIS_TYPE":"0","RCS_SIZE":"LARGE","MEAN_ELEMENT_THEORY":"SGP4","NORAD_CAT_ID":"49745","OBJECT_TYPE":"PAYLOAD","EPOCH":"2023-04-28T19:49:52.880736","OBJECT_ID":"2021-115X","TLE_LINE1":"1 49745U 21115X   23118.82630649 -.00000394  00000-0 -66428-5 0  9991","ARG_OF_PERICENTER":"66.3872","SITE":"AFETR","MEAN_MOTION":"15.08858498","SEMIMAJOR_AXIS":"6917.824","TLE_LINE2":"2 49745  53.2164 164.1528 0001604  66.3872 293.7288 15.08858498 78754","REF_FRAME":"TEME","PERIAPSIS":"538.579","INCLINATION":"53.2164","CLASSIFICATION_TYPE":"U","MEAN_ANOMALY":"293.7288","GP_ID":"230895070","BSTAR":"-0.00000664280000","TIME_SYSTEM":"UTC","DECAY_DATE":null,"APOAPSIS":"540.798"},{"SITE":"AFETR","OBJECT_ID":"2021-115Y","TLE_LINE1":"1 49746U 21115Y   23118.84743596 -.00004611  00000-0 -27178-3 0  9993","ARG_OF_PERICENTER":"94.5782","INCLINATION":"53.2152","TLE_LINE2":"2 49746  53.2152 164.0900 0001316  94.5782 265.5361 15.08842178 78755","REF_FRAME":"TEME","PERIAPSIS":"538.828","CLASSIFICATION_TYPE":"U","MEAN_MOTION":"15.08842178","SEMIMAJOR_AXIS":"6917.874","GP_ID":"230894575","MEAN_ANOMALY":"265.5361","TIME_SYSTEM":"UTC","APOAPSIS":"540.649","DECAY_DATE":null,"BSTAR":"-0.00027178000000","COUNTRY_CODE":"US","MEAN_MOTION_DDOT":"0.0000000000000","ECCENTRICITY":"0.00013160","CENTER_NAME":"EARTH","RA_OF_ASC_NODE":"164.0900","FILE":"3895984","MEAN_MOTION_DOT":"-0.00004611","OBJECT_NAME":"STARLINK-3233","LAUNCH_DATE":"2021-12-02","REV_AT_EPOCH":"7875","ELEMENT_SET_NO":"999","EPHEMERIS_TYPE":"0","PERIOD":"95.437","NORAD_CAT_ID":"49746","EPOCH":"2023-04-28T20:20:18.466944","OBJECT_TYPE":"PAYLOAD","RCS_SIZE":"LARGE","MEAN_ELEMENT_THEORY":"SGP4"},{"COUNTRY_CODE":"US","MEAN_MOTION_DDOT":"0.0000000000000","ECCENTRICITY":"0.00014950","CENTER_NAME":"EARTH","RA_OF_ASC_NODE":"164.1375","MEAN_MOTION_DOT":"-0.00004549","FILE":"3895984","OBJECT_NAME":"STARLINK-3247","LAUNCH_DATE":"2021-12-02","REV_AT_EPOCH":"7875","ELEMENT_SET_NO":"999","EPHEMERIS_TYPE":"0","PERIOD":"95.438","NORAD_CAT_ID":"49747","EPOCH":"2023-04-28T20:04:24.284352","OBJECT_TYPE":"PAYLOAD","RCS_SIZE":"MEDIUM","MEAN_ELEMENT_THEORY":"SGP4","SITE":"AFETR","OBJECT_ID":"2021-115Z","TLE_LINE1":"1 49747U 21115Z   23118.83639218 -.00004549  00000-0 -26787-3 0  9993","ARG_OF_PERICENTER":"97.0788","INCLINATION":"53.2157","TLE_LINE2":"2 49747  53.2157 164.1375 0001495  97.0788 263.0374 15.08840011 78751","REF_FRAME":"TEME","PERIAPSIS":"538.711","CLASSIFICATION_TYPE":"U","MEAN_MOTION":"15.08840011","SEMIMAJOR_AXIS":"6917.880","GP_ID":"230895073","MEAN_ANOMALY":"263.0374","TIME_SYSTEM":"UTC","DECAY_DATE":null,"APOAPSIS":"540.780","BSTAR":"-0.00026787000000"},{"BSTAR":"0.00053222000000","DECAY_DATE":null,"APOAPSIS":"540.343","TIME_SYSTEM":"UTC","MEAN_ANOMALY":"251.1351","GP_ID":"230895068","SEMIMAJOR_AXIS":"6917.798","MEAN_MOTION":"15.08866817","CLASSIFICATION_TYPE":"U","PERIAPSIS":"538.983","TLE_LINE2":"2 49748  53.2143 164.0506 0000983 108.9748 251.1351 15.08866817 78767","REF_FRAME":"TEME","INCLINATION":"53.2143","TLE_LINE1":"1 49748U 21115AA  23118.85479324  .00008199  00000-0  53222-3 0  9993","ARG_OF_PERICENTER":"108.9748","OBJECT_ID":"2021-115AA","SITE":"AFETR","MEAN_ELEMENT_THEORY":"SGP4","RCS_SIZE":"LARGE","OBJECT_TYPE":"PAYLOAD","EPOCH":"2023-04-28T20:30:54.135936","NORAD_CAT_ID":"49748","PERIOD":"95.436","EPHEMERIS_TYPE":"0","ELEMENT_SET_NO":"999","REV_AT_EPOCH":"7876","LAUNCH_DATE":"2021-12-02","OBJECT_NAME":"STARLINK-3248","FILE":"3895984","MEAN_MOTION_DOT":"0.00008199","RA_OF_ASC_NODE":"164.0506","CENTER_NAME":"EARTH","ECCENTRICITY":"0.00009830","MEAN_MOTION_DDOT":"0.0000000000000","COUNTRY_CODE":"US"},{"TLE_LINE1":"1 49749U 21115AB  23118.84375482 -.00005654  00000-0 -33729-3 0  9998","ARG_OF_PERICENTER":"98.4485","OBJECT_ID":"2021-115AB","SITE":"AFETR","SEMIMAJOR_AXIS":"6917.835","MEAN_MOTION":"15.08854890","CLASSIFICATION_TYPE":"U","PERIAPSIS":"538.969","TLE_LINE2":"2 49749  53.2152 164.1058 0001057  98.4485 261.6627 15.08854890 78754","REF_FRAME":"TEME","INCLINATION":"53.2152","MEAN_ANOMALY":"261.6627","GP_ID":"230895069","BSTAR":"-0.00033729000000","DECAY_DATE":null,"APOAPSIS":"540.431","TIME_SYSTEM":"UTC","ECCENTRICITY":"0.00010570","MEAN_MOTION_DDOT":"0.0000000000000","COUNTRY_CODE":"US","LAUNCH_DATE":"2021-12-02","OBJECT_NAME":"STARLINK-3250","MEAN_MOTION_DOT":"-0.00005654","FILE":"3895984","RA_OF_ASC_NODE":"164.1058","CENTER_NAME":"EARTH","PERIOD":"95.437","EPHEMERIS_TYPE":"0","ELEMENT_SET_NO":"999","REV_AT_EPOCH":"7875","MEAN_ELEMENT_THEORY":"SGP4","RCS_SIZE":"LARGE","OBJECT_TYPE":"PAYLOAD","EPOCH":"2023-04-28T20:15:00.416448","NORAD_CAT_ID":"49749"},{"GP_ID":"230895075","MEAN_ANOMALY":"285.2664","DECAY_DATE":null,"APOAPSIS":"540.812","TIME_SYSTEM":"UTC","BSTAR":"-0.00003351900000","SITE":"AFETR","TLE_LINE1":"1 49750U 21115AC  23118.86310991 -.00000821  00000-0 -33519-4 0  9995","ARG_OF_PERICENTER":"74.8496","OBJECT_ID":"2021-115AC","CLASSIFICATION_TYPE":"U","TLE_LINE2":"2 49750  53.2149 164.0271 0001522  74.8496 285.2664 15.08835488 78761","REF_FRAME":"TEME","PERIAPSIS":"538.706","INCLINATION":"53.2149","SEMIMAJOR_AXIS":"6917.894","MEAN_MOTION":"15.08835488","EPHEMERIS_TYPE":"0","ELEMENT_SET_NO":"999","REV_AT_EPOCH":"7876","PERIOD":"95.438","OBJECT_TYPE":"PAYLOAD","EPOCH":"2023-04-28T20:42:52.696224","NORAD_CAT_ID":"49750","MEAN_ELEMENT_THEORY":"SGP4","RCS_SIZE":"LARGE","COUNTRY_CODE":"US","ECCENTRICITY":"0.00015220","MEAN_MOTION_DDOT":"0.0000000000000","MEAN_MOTION_DOT":"-0.00000821","FILE":"3895984","RA_OF_ASC_NODE":"164.0271","CENTER_NAME":"EARTH","LAUNCH_DATE":"2021-12-02","OBJECT_NAME":"STARLINK-3236"},{"GP_ID":"230885540","MEAN_ANOMALY":"254.2007","TIME_SYSTEM":"UTC","APOAPSIS":"540.452","DECAY_DATE":null,"BSTAR":"0.00035302000000","SITE":"AFETR","OBJECT_ID":"2021-115AD","ARG_OF_PERICENTER":"105.9105","TLE_LINE1":"1 49751U 21115AD  23118.45094566  .00005337  00000-0  35302-3 0  9994","INCLINATION":"53.2149","TLE_LINE2":"2 49751  53.2149 165.8382 0001094 105.9105 254.2007 15.08856574 77597","PERIAPSIS":"538.938","REF_FRAME":"TEME","CLASSIFICATION_TYPE":"U","MEAN_MOTION":"15.08856574","SEMIMAJOR_AXIS":"6917.830","REV_AT_EPOCH":"7759","ELEMENT_SET_NO":"999","EPHEMERIS_TYPE":"0","PERIOD":"95.437","NORAD_CAT_ID":"49751","EPOCH":"2023-04-28T10:49:21.705024","OBJECT_TYPE":"PAYLOAD","RCS_SIZE":"LARGE","MEAN_ELEMENT_THEORY":"SGP4","COUNTRY_CODE":"US","MEAN_MOTION_DDOT":"0.0000000000000","ECCENTRICITY":"0.00010940","CENTER_NAME":"EARTH","RA_OF_ASC_NODE":"165.8382","FILE":"3895770","MEAN_MOTION_DOT":"0.00005337","OBJECT_NAME":"STARLINK-3229","LAUNCH_DATE":"2021-12-02"},{"OBJECT_ID":"2021-115AE","TLE_LINE1":"1 49752U 21115AE  23118.74630399  .00070421  00000-0  44102-2 0  9990","ARG_OF_PERICENTER":"98.7971","SITE":"AFETR","MEAN_MOTION":"15.08746568","SEMIMAJOR_AXIS":"6918.166","PERIAPSIS":"539.253","TLE_LINE2":"2 49752  53.2148 154.5479 0001125  98.7971 261.3148 15.08746568 78883","REF_FRAME":"TEME","INCLINATION":"53.2148","CLASSIFICATION_TYPE":"U","MEAN_ANOMALY":"261.3148","GP_ID":"230895072","BSTAR":"0.00441020000000","TIME_SYSTEM":"UTC","APOAPSIS":"540.809","DECAY_DATE":null,"MEAN_MOTION_DDOT":"0.0000000000000","ECCENTRICITY":"0.00011250","COUNTRY_CODE":"US","LAUNCH_DATE":"2021-12-02","OBJECT_NAME":"STARLINK-3209","RA_OF_ASC_NODE":"154.5479","CENTER_NAME":"EARTH","MEAN_MOTION_DOT":"0.00070421","FILE":"3895984","PERIOD":"95.443","ELEMENT_SET_NO":"999","REV_AT_EPOCH":"7888","EPHEMERIS_TYPE":"0","RCS_SIZE":"LARGE","MEAN_ELEMENT_THEORY":"SGP4","NORAD_CAT_ID":"49752","OBJECT_TYPE":"PAYLOAD","EPOCH":"2023-04-28T17:54:40.664736"}];
